start=new Date('2022-05-25T00:00:00.000Z').valueOf();
sats=[{"REF_FRAME":"TEME","FILE":"3462783","MEAN_MOTION_DOT":"0.00027309","ARG_OF_PERICENTER":"38.0907","OBJECT_ID":"2021-125X","EPOCH":"2022-05-24T22:00:00.999936","EPHEMERIS_TYPE":"0","PERIAPSIS":"538.055","MEAN_MOTION_DDOT":"0.0000000000000","ECCENTRICITY":"0.00024720","REV_AT_EPOCH":"130","BSTAR":"0.00172760000000","TIME_SYSTEM":"UTC","MEAN_ANOMALY":"139.0686","CENTER_NAME":"EARTH","SEMIMAJOR_AXIS":"6917.900","SITE":"AFWTR","COUNTRY_CODE":"US","MEAN_ELEMENT_THEORY":"SGP4","PERIOD":"95.438","RCS_SIZE":"LARGE","DECAY_DATE":null,"INCLINATION":"53.2175","OBJECT_NAME":"STARLINK-3282","ELEMENT_SET_NO":"999","NORAD_CAT_ID":"50177","APOAPSIS":"541.475","CLASSIFICATION_TYPE":"U","MEAN_MOTION":"15.08833521","TLE_LINE1":"1 50177U 21125X   22144.91667824  .00027309  00000-0  17276-2 0  9993","GP_ID":"204457237","RA_OF_ASC_NODE":"345.6159","TLE_LINE2":"2 50177  53.2175 345.6159 0002472  38.0907 139.0686 15.08833521  1303","OBJECT_TYPE":"PAYLOAD","LAUNCH_DATE":"2021-12-18"},{"REV_AT_EPOCH":"130","MEAN_MOTION_DDOT":"0.0000000000000","ECCENTRICITY":"0.00020060","PERIAPSIS":"538.411","OBJECT_ID":"2021-125Y","EPOCH":"2022-05-24T22:00:00.999936","EPHEMERIS_TYPE":"0","ARG_OF_PERICENTER":"34.7210","MEAN_MOTION_DOT":"0.00005703","FILE":"3462783","REF_FRAME":"TEME","COUNTRY_CODE":"US","SITE":"AFWTR","SEMIMAJOR_AXIS":"6917.934","MEAN_ANOMALY":"2.4292","CENTER_NAME":"EARTH","TIME_SYSTEM":"UTC","BSTAR":"0.00037629000000","CLASSIFICATION_TYPE":"U","APOAPSIS":"541.186","NORAD_CAT_ID":"50178","ELEMENT_SET_NO":"999","OBJECT_NAME":"STARLINK-3284","DECAY_DATE":null,"INCLINATION":"53.2169","MEAN_ELEMENT_THEORY":"SGP4","PERIOD":"95.439","RCS_SIZE":"LARGE","LAUNCH_DATE":"2021-12-18","OBJECT_TYPE":"PAYLOAD","TLE_LINE2":"2 50178  53.2169 345.6079 0002006  34.7210   2.4292 15.08822545  1301","GP_ID":"204457481","RA_OF_ASC_NODE":"345.6079","TLE_LINE1":"1 50178U 21125Y   22144.91667824  .00005703  00000-0  37629-3 0  9993","MEAN_MOTION":"15.08822545"},{"CLASSIFICATION_TYPE":"U","NORAD_CAT_ID":"50179","APOAPSIS":"541.349","OBJECT_NAME":"STARLINK-3283","ELEMENT_SET_NO":"999","PERIOD":"95.439","MEAN_ELEMENT_THEORY":"SGP4","RCS_SIZE":"LARGE","INCLINATION":"53.2176","DECAY_DATE":null,"TLE_LINE2":"2 50179  53.2176 345.6127 0002213  37.0357 180.0822 15.08816204  1309","LAUNCH_DATE":"2021-12-18","OBJECT_TYPE":"PAYLOAD","TLE_LINE1":"1 50179U 21125Z   22144.91667824  .00033852  00000-0  21362-2 0  9996","MEAN_MOTION":"15.08816204","GP_ID":"204455736","RA_OF_ASC_NODE":"345.6127","MEAN_MOTION_DDOT":"0.0000000000000","ECCENTRICITY":"0.00022130","REV_AT_EPOCH":"130","EPOCH":"2022-05-24T22:00:00.999936","OBJECT_ID":"2021-125Z","EPHEMERIS_TYPE":"0","PERIAPSIS":"538.287","FILE":"3462783","MEAN_MOTION_DOT":"0.00033852","ARG_OF_PERICENTER":"37.0357","REF_FRAME":"TEME","SITE":"AFWTR","COUNTRY_CODE":"US","MEAN_ANOMALY":"180.0822","CENTER_NAME":"EARTH","SEMIMAJOR_AXIS":"6917.953","BSTAR":"0.00213620000000","TIME_SYSTEM":"UTC"},{"ELEMENT_SET_NO":"999","OBJECT_NAME":"STARLINK-3265","INCLINATION":"53.2184","DECAY_DATE":null,"PERIOD":"95.439","MEAN_ELEMENT_THEORY":"SGP4","RCS_SIZE":"LARGE","CLASSIFICATION_TYPE":"U","APOAPSIS":"541.428","NORAD_CAT_ID":"50180","GP_ID":"204455986","RA_OF_ASC_NODE":"345.6114","TLE_LINE1":"1 50180U 21125AA  22144.91667824  .00032097  00000-0  20272-2 0  9997","MEAN_MOTION":"15.08811273","LAUNCH_DATE":"2021-12-18","OBJECT_TYPE":"PAYLOAD","TLE_LINE2":"2 50180  53.2184 345.6114 0002306  39.4107 257.8070 15.08811273  1307","MEAN_MOTION_DOT":"0.00032097","ARG_OF_PERICENTER":"39.4107","FILE":"3462783","REF_FRAME":"TEME","REV_AT_EPOCH":"130","MEAN_MOTION_DDOT":"0.0000000000000","ECCENTRICITY":"0.00023060","PERIAPSIS":"538.238","OBJECT_ID":"2021-125AA","EPOCH":"2022-05-24T22:00:00.999936","EPHEMERIS_TYPE":"0","SEMIMAJOR_AXIS":"6917.968","MEAN_ANOMALY":"257.8070","CENTER_NAME":"EARTH","TIME_SYSTEM":"UTC","BSTAR":"0.00202720000000","COUNTRY_CODE":"US","SITE":"AFWTR"},{"TLE_LINE2":"2 50181  53.2188 345.6013 0002236  36.3570 300.8617 15.08813781  1304","OBJECT_TYPE":"PAYLOAD","LAUNCH_DATE":"2021-12-18","TLE_LINE1":"1 50181U 21125AB  22144.91667824  .00024298  00000-0  15406-2 0  9995","MEAN_MOTION":"15.08813781","RA_OF_ASC_NODE":"345.6013","GP_ID":"204456738","CLASSIFICATION_TYPE":"U","NORAD_CAT_ID":"50181","APOAPSIS":"541.372","OBJECT_NAME":"STARLINK-3285","ELEMENT_SET_NO":"999","RCS_SIZE":"LARGE","MEAN_ELEMENT_THEORY":"SGP4","PERIOD":"95.439","INCLINATION":"53.2188","DECAY_DATE":null,"SITE":"AFWTR","COUNTRY_CODE":"US","CENTER_NAME":"EARTH","MEAN_ANOMALY":"300.8617","SEMIMAJOR_AXIS":"6917.961","BSTAR":"0.00154060000000","TIME_SYSTEM":"UTC","ECCENTRICITY":"0.00022360","MEAN_MOTION_DDOT":"0.0000000000000","REV_AT_EPOCH":"130","EPHEMERIS_TYPE":"0","OBJECT_ID":"2021-125AB","EPOCH":"2022-05-24T22:00:00.999936","PERIAPSIS":"538.279","FILE":"3462783","MEAN_MOTION_DOT":"0.00024298","ARG_OF_PERICENTER":"36.3570","REF_FRAME":"TEME"},{"BSTAR":"-0.00031008000000","TIME_SYSTEM":"UTC","MEAN_ANOMALY":"345.8854","CENTER_NAME":"EARTH","SEMIMAJOR_AXIS":"6917.933","SITE":"AFWTR","COUNTRY_CODE":"US","REF_FRAME":"TEME","FILE":"3462783","MEAN_MOTION_DOT":"-0.00005218","ARG_OF_PERICENTER":"31.2683","OBJECT_ID":"2021-125AC","EPOCH":"2022-05-24T22:00:00.999936","EPHEMERIS_TYPE":"0","PERIAPSIS":"538.205","MEAN_MOTION_DDOT":"0.0000000000000","ECCENTRICITY":"0.00023030","REV_AT_EPOCH":"130","MEAN_MOTION":"15.08822694","TLE_LINE1":"1 50182U 21125AC  22144.91667824 -.00005218  00000-0 -31008-3 0  9996","GP_ID":"204456982","RA_OF_ASC_NODE":"345.6018","TLE_LINE2":"2 50182  53.2191 345.6018 0002303  31.2683 345.8854 15.08822694  1303","LAUNCH_DATE":"2021-12-18","OBJECT_TYPE":"PAYLOAD","PERIOD":"95.439","MEAN_ELEMENT_THEORY":"SGP4","RCS_SIZE":"LARGE","DECAY_DATE":null,"INCLINATION":"53.2191","OBJECT_NAME":"STARLINK-3277","ELEMENT_SET_NO":"999","NORAD_CAT_ID":"50182","APOAPSIS":"541.391","CLASSIFICATION_TYPE":"U"},{"LAUNCH_DATE":"2021-12-18","OBJECT_TYPE":"PAYLOAD","TLE_LINE2":"2 50183  53.2200 345.6080 0002728  27.0147 330.1992 15.08820520  1309","RA_OF_ASC_NODE":"345.6080","GP_ID":"204456236","TLE_LINE1":"1 50183U 21125AD  22144.91667824 -.00011973  00000-0 -73571-3 0  9993","MEAN_MOTION":"15.08820520","CLASSIFICATION_TYPE":"U","APOAPSIS":"541.692","NORAD_CAT_ID":"50183","ELEMENT_SET_NO":"999","OBJECT_NAME":"STARLINK-3281","DECAY_DATE":null,"INCLINATION":"53.2200","RCS_SIZE":"LARGE","MEAN_ELEMENT_THEORY":"SGP4","PERIOD":"95.439","COUNTRY_CODE":"US","SITE":"AFWTR","SEMIMAJOR_AXIS":"6917.940","CENTER_NAME":"EARTH","MEAN_ANOMALY":"330.1992","TIME_SYSTEM":"UTC","BSTAR":"-0.00073571000000","REV_AT_EPOCH":"130","ECCENTRICITY":"0.00027280","MEAN_MOTION_DDOT":"0.0000000000000","PERIAPSIS":"537.918","EPHEMERIS_TYPE":"0","EPOCH":"2022-05-24T22:00:00.999936","OBJECT_ID":"2021-125AD","MEAN_MOTION_DOT":"-0.00011973","ARG_OF_PERICENTER":"27.0147","FILE":"3462783","REF_FRAME":"TEME"},{"NORAD_CAT_ID":"50185","APOAPSIS":"541.273","CLASSIFICATION_TYPE":"U","RCS_SIZE":"LARGE","MEAN_ELEMENT_THEORY":"SGP4","PERIOD":"95.437","DECAY_DATE":null,"INCLINATION":"53.2185","OBJECT_NAME":"STARLINK-3279","ELEMENT_SET_NO":"999","TLE_LINE2":"2 50185  53.2185 345.6107 0002232  33.9166 283.2231 15.08845404  1302","OBJECT_TYPE":"PAYLOAD","LAUNCH_DATE":"2021-12-18","MEAN_MOTION":"15.08845404","TLE_LINE1":"1 50185U 21125AF  22144.91667824 -.00012642  00000-0 -77740-3 0  9991","RA_OF_ASC_NODE":"345.6107","GP_ID":"204456486","EPHEMERIS_TYPE":"0","EPOCH":"2022-05-24T22:00:00.999936","OBJECT_ID":"2021-125AF","PERIAPSIS":"538.185","ECCENTRICITY":"0.00022320","MEAN_MOTION_DDOT":"0.0000000000000","REV_AT_EPOCH":"130","REF_FRAME":"TEME","FILE":"3462783","ARG_OF_PERICENTER":"33.9166","MEAN_MOTION_DOT":"-0.00012642","SITE":"AFWTR","COUNTRY_CODE":"US","BSTAR":"-0.00077740000000","TIME_SYSTEM":"UTC","CENTER_NAME":"EARTH","MEAN_ANOMALY":"283.2231","SEMIMAJOR_AXIS":"6917.864"},{"REV_AT_EPOCH":"130","MEAN_MOTION_DDOT":"0.0000000000000","ECCENTRICITY":"0.00025130","PERIAPSIS":"538.032","OBJECT_ID":"2021-125AG","EPOCH":"2022-05-24T22:00:00.999936","EPHEMERIS_TYPE":"0","ARG_OF_PERICENTER":"24.4270","MEAN_MOTION_DOT":"-0.00023145","FILE":"3462783","REF_FRAME":"TEME","COUNTRY_CODE":"US","SITE":"AFWTR","SEMIMAJOR_AXIS":"6917.906","MEAN_ANOMALY":"217.7805","CENTER_NAME":"EARTH","TIME_SYSTEM":"UTC","BSTAR":"-0.00144100000000","CLASSIFICATION_TYPE":"U","APOAPSIS":"541.509","NORAD_CAT_ID":"50186","ELEMENT_SET_NO":"999","OBJECT_NAME":"STARLINK-3274","INCLINATION":"53.2183","DECAY_DATE":null,"MEAN_ELEMENT_THEORY":"SGP4","PERIOD":"95.438","RCS_SIZE":"LARGE","LAUNCH_DATE":"2021-12-18","OBJECT_TYPE":"PAYLOAD","TLE_LINE2":"2 50186  53.2183 355.5989 0002513  24.4270 217.7805 15.08831643  1301","GP_ID":"204457238","RA_OF_ASC_NODE":"355.5989","MEAN_MOTION":"15.08831643","TLE_LINE1":"1 50186U 21125AG  22144.91667824 -.00023145  00000-0 -14410-2 0  9996"},{"FILE":"3462783","ARG_OF_PERICENTER":"44.3027","MEAN_MOTION_DOT":"0.00041593","REF_FRAME":"TEME","ECCENTRICITY":"0.00018140","MEAN_MOTION_DDOT":"0.0000000000000","REV_AT_EPOCH":"130","EPHEMERIS_TYPE":"0","EPOCH":"2022-05-24T22:00:00.999936","OBJECT_ID":"2021-125AH","PERIAPSIS":"538.570","CENTER_NAME":"EARTH","MEAN_ANOMALY":"47.8490","SEMIMAJOR_AXIS":"6917.960","BSTAR":"0.00261790000000","TIME_SYSTEM":"UTC","SITE":"AFWTR","COUNTRY_CODE":"US","OBJECT_NAME":"STARLINK-3272","ELEMENT_SET_NO":"999","RCS_SIZE":"LARGE","PERIOD":"95.439","MEAN_ELEMENT_THEORY":"SGP4","DECAY_DATE":null,"INCLINATION":"53.2165","CLASSIFICATION_TYPE":"U","NORAD_CAT_ID":"50187","APOAPSIS":"541.080","TLE_LINE1":"1 50187U 21125AH  22144.91667824  .00041593  00000-0  26179-2 0  9997","MEAN_MOTION":"15.08814047","RA_OF_ASC_NODE":"335.6088","GP_ID":"204457482","TLE_LINE2":"2 50187  53.2165 335.6088 0001814  44.3027  47.8490 15.08814047  1306","LAUNCH_DATE":"2021-12-18","OBJECT_TYPE":"PAYLOAD"}];
